{"fetched_at":"2026-03-29T16:36:15Z","count":15609,"tles":[{"name":"STARLINK-35643","line1":"1 66456U 25262A   26087.72325612  .00026182  00000+0  95677-3 0  9990","line2":"2 66456  43.0025 189.0035 0000980 269.5818  90.4921 15.27607808 21816","category":"Starlink"}]}