{
  "norad_id": 66456,
  "name": "STARLINK-35643",
  "history": [
    {
      "epoch": "2026-03-28T17:21:29.328768",
      "apogee_km": 483.6383554463282,
      "perigee_km": 482.2933048475061,
      "latitude_deg": -16.61288942725446,
      "longitude_deg": 175.0325875200797,
      "semi_major_axis_km": 6861.102830146917,
      "eccentricity": 9.802e-05,
      "inclination_deg": 43.0025,
      "raan_deg": 189.0035,
      "arg_perigee_deg": 269.5818,
      "mean_anomaly_deg": 90.4921,
      "mean_motion_rev_day": 15.27607808
    }
  ]
}